{"type":"FeatureCollection","features":[{"type":"Feature","properties":{"key":"BRU","name":"Brussel","lon":4.370852710301875,"lat":50.83577122800317},"geometry":{"type":"Polygon","coordinates":[[[4.3845,50.7644],[4.3801,50.7693],[4.3338,50.775],[4.3256,50.7797],[4.3119,50.7977],[4.303,50.8027],[4.3064,50.8125],[4.3002,50.8128],[4.2822,50.8075],[4.2456,50.8176],[4.2565,50.8344],[4.281,50.8385],[4.2846,50.8452],[4.2844,50.8535],[4.2898,50.8558],[4.2799,50.8639],[4.2885,50.8736],[4.2925,50.8748],[4.2982,50.8821],[4.2949,50.8886],[4.3009,50.8905],[4.3193,50.8934],[4.3321,50.8996],[4.3606,50.9012],[4.3771,50.8979],[4.3886,50.9096],[4.4022,50.9136],[4.4129,50.9115],[4.4157,50.9062],[4.4315,50.8951],[4.4279,50.8895],[4.4371,50.8788],[4.426,50.8718],[4.4206,50.8678],[4.4266,50.863],[4.4579,50.8528],[4.4618,50.8486],[4.4768,50.8204],[4.4548,50.8184],[4.4491,50.808],[4.4805,50.7943],[4.4702,50.7897],[4.4517,50.7826],[4.3845,50.7644]]]}}]}